[{"OBJECT_NAME":"SHIYAN-3 (SY-3)","OBJECT_ID":"2008-056A","EPOCH":"2026-03-09T16:28:21.411552","MEAN_MOTION":14.30765435,"ECCENTRICITY":0.00146908,"INCLINATION":98.6178,"RA_OF_ASC_NODE":96.1558,"ARG_OF_PERICENTER":69.2006,"MEAN_ANOMALY":291.0749,"EPHEMERIS_TYPE":0,"CLASSIFICATION_TYPE":"U","NORAD_CAT_ID":33433,"ELEMENT_SET_NO":999,"REV_AT_EPOCH":90457,"BSTAR":0.00010019007,"MEAN_MOTION_DOT":2.19e-6,"MEAN_MOTION_DDOT":0},{"OBJECT_NAME":"CZ-6A DEB","OBJECT_ID":"2022-151EF","EPOCH":"2026-03-09T22:18:38.939904","MEAN_MOTION":14.21315621,"ECCENTRICITY":0.00424181,"INCLINATION":98.7736,"RA_OF_ASC_NODE":77.2237,"ARG_OF_PERICENTER":256.0227,"MEAN_ANOMALY":103.6231,"EPHEMERIS_TYPE":0,"CLASSIFICATION_TYPE":"U","NORAD_CAT_ID":54407,"ELEMENT_SET_NO":999,"REV_AT_EPOCH":17159,"BSTAR":0.0011722245,"MEAN_MOTION_DOT":2.536e-5,"MEAN_MOTION_DDOT":0}]
